[{"OBJECT_NAME":"STARLINK-34779","OBJECT_ID":"2025-165C","EPOCH":"2026-03-09T17:01:35.419008","MEAN_MOTION":15.05645667,"ECCENTRICITY":1.748e-5,"INCLINATION":97.6021,"RA_OF_ASC_NODE":147.2494,"ARG_OF_PERICENTER":148.6913,"MEAN_ANOMALY":211.4324,"EPHEMERIS_TYPE":0,"CLASSIFICATION_TYPE":"U","NORAD_CAT_ID":65058,"ELEMENT_SET_NO":999,"REV_AT_EPOCH":3479,"BSTAR":0.00045003279,"MEAN_MOTION_DOT":6.438e-5,"MEAN_MOTION_DDOT":0},{"OBJECT_NAME":"SL-8 DEB","OBJECT_ID":"1976-098E","EPOCH":"2026-03-09T08:07:12.416160","MEAN_MOTION":15.06605169,"ECCENTRICITY":0.00102283,"INCLINATION":74.028,"RA_OF_ASC_NODE":26.283,"ARG_OF_PERICENTER":218.296,"MEAN_ANOMALY":294.2383,"EPHEMERIS_TYPE":0,"CLASSIFICATION_TYPE":"U","NORAD_CAT_ID":18504,"ELEMENT_SET_NO":999,"REV_AT_EPOCH":18055,"BSTAR":0.0011587434,"MEAN_MOTION_DOT":0.00017191,"MEAN_MOTION_DDOT":0}]
